[{"OBJECT_NAME":"STARLINK-3524","OBJECT_ID":"2022-016H","EPOCH":"2026-03-09T22:16:33.425760","MEAN_MOTION":15.08801177,"ECCENTRICITY":0.00014166,"INCLINATION":53.2187,"RA_OF_ASC_NODE":328.0555,"ARG_OF_PERICENTER":109.7277,"MEAN_ANOMALY":250.3868,"EPHEMERIS_TYPE":0,"CLASSIFICATION_TYPE":"U","NORAD_CAT_ID":51721,"ELEMENT_SET_NO":999,"REV_AT_EPOCH":22346,"BSTAR":0.00044620561,"MEAN_MOTION_DOT":6.813e-5,"MEAN_MOTION_DDOT":0},{"OBJECT_NAME":"PSLV DEB","OBJECT_ID":"2001-049AH","EPOCH":"2026-03-09T23:39:21.767904","MEAN_MOTION":14.98984537,"ECCENTRICITY":0.00513683,"INCLINATION":98.1237,"RA_OF_ASC_NODE":87.2704,"ARG_OF_PERICENTER":48.4953,"MEAN_ANOMALY":9.0267,"EPHEMERIS_TYPE":0,"CLASSIFICATION_TYPE":"U","NORAD_CAT_ID":27089,"ELEMENT_SET_NO":999,"REV_AT_EPOCH":31452,"BSTAR":0.000212521,"MEAN_MOTION_DOT":2.577e-5,"MEAN_MOTION_DDOT":0}]
